{
  "norad_id": 54077,
  "name": "STARLINK-5171",
  "history": [
    {
      "epoch": "2026-04-16T19:38:36.763584Z",
      "apogee_km": 540.5834501958743,
      "perigee_km": 538.9203896995186,
      "latitude_deg": 6.324076820805793e-05,
      "longitude_deg": 8.975935123683612,
      "height_km": 540.413475257212,
      "semi_major_axis_km": 6917.888919947696,
      "eccentricity": 0.0001202,
      "inclination_deg": 53.2165,
      "raan_deg": 148.5898,
      "arg_perigee_deg": 73.6318,
      "mean_anomaly_deg": 286.4807,
      "mean_motion_rev_day": 15.08837209
    },
    {
      "epoch": "2026-04-17T19:29:23.870112Z",
      "apogee_km": 540.5968097744535,
      "perigee_km": 538.9031726812618,
      "latitude_deg": 3.125128153441166e-05,
      "longitude_deg": 5.839897813457539,
      "height_km": 540.427986740754,
      "semi_major_axis_km": 6917.886991227858,
      "eccentricity": 0.00012241,
      "inclination_deg": 53.2164,
      "raan_deg": 144.1294,
      "arg_perigee_deg": 75.0929,
      "mean_anomaly_deg": 285.0199,
      "mean_motion_rev_day": 15.0883784
    },
    {
      "epoch": "2026-04-18T19:20:11.152032Z",
      "apogee_km": 540.6106308145245,
      "perigee_km": 538.8949941410301,
      "latitude_deg": -9.142536092233978e-06,
      "longitude_deg": 2.703520380992727,
      "height_km": 540.4453449761754,
      "semi_major_axis_km": 6917.889812477777,
      "eccentricity": 0.000124,
      "inclination_deg": 53.2167,
      "raan_deg": 139.6694,
      "arg_perigee_deg": 76.2895,
      "mean_anomaly_deg": 283.8235,
      "mean_motion_rev_day": 15.08836917
    },
    {
      "epoch": "2026-04-19T19:10:57.990720Z",
      "apogee_km": 540.5746436936097,
      "perigee_km": 538.9198857774836,
      "latitude_deg": 5.748218869518022e-07,
      "longitude_deg": -0.4313691527476319,
      "height_km": 540.4415587673973,
      "semi_major_axis_km": 6917.884264735546,
      "eccentricity": 0.0001196,
      "inclination_deg": 53.217,
      "raan_deg": 135.209,
      "arg_perigee_deg": 75.8939,
      "mean_anomaly_deg": 284.2186,
      "mean_motion_rev_day": 15.08838732
    },
    {
      "epoch": "2026-04-20T11:04:49.324800Z",
      "apogee_km": 540.6188971097017,
      "perigee_km": 538.8685349309335,
      "latitude_deg": -3.8294090313341695e-05,
      "longitude_deg": 117.47811773656169,
      "height_km": 540.4217244056002,
      "semi_major_axis_km": 6917.880716020317,
      "eccentricity": 0.00012651,
      "inclination_deg": 53.2168,
      "raan_deg": 132.2353,
      "arg_perigee_deg": 75.5878,
      "mean_anomaly_deg": 284.5254,
      "mean_motion_rev_day": 15.08839893
    },
    {
      "epoch": "2026-04-21T07:44:50.384832Z",
      "apogee_km": 540.6438189111504,
      "perigee_km": 538.8562369031397,
      "latitude_deg": -5.502335290609621e-05,
      "longitude_deg": 162.75882452712537,
      "height_km": 540.4288348727603,
      "semi_major_axis_km": 6917.887027907145,
      "eccentricity": 0.0001292,
      "inclination_deg": 53.216,
      "raan_deg": 128.3692,
      "arg_perigee_deg": 75.955,
      "mean_anomaly_deg": 284.1585,
      "mean_motion_rev_day": 15.08837828
    },
    {
      "epoch": "2026-04-22T17:07:56.290944Z",
      "apogee_km": 540.6688324532415,
      "perigee_km": 538.8328250234945,
      "latitude_deg": -2.9886571438967612e-05,
      "longitude_deg": 14.368158750206812,
      "height_km": 540.4189213224415,
      "semi_major_axis_km": 6917.887828738368,
      "eccentricity": 0.0001327,
      "inclination_deg": 53.2161,
      "raan_deg": 122.1242,
      "arg_perigee_deg": 75.6459,
      "mean_anomaly_deg": 284.468,
      "mean_motion_rev_day": 15.08837566
    },
    {
      "epoch": "2026-04-23T07:26:24.708480Z",
      "apogee_km": 540.6222941836768,
      "perigee_km": 538.8903304140113,
      "latitude_deg": 3.615186605441268e-05,
      "longitude_deg": 156.48659588983725,
      "height_km": 540.3859678935468,
      "semi_major_axis_km": 6917.893312298844,
      "eccentricity": 0.00012518,
      "inclination_deg": 53.2166,
      "raan_deg": 119.4486,
      "arg_perigee_deg": 72.0979,
      "mean_anomaly_deg": 288.015,
      "mean_motion_rev_day": 15.08835772
    },
    {
      "epoch": "2026-04-24T05:41:48.728256Z",
      "apogee_km": 540.629988678008,
      "perigee_km": 538.8756118246638,
      "latitude_deg": 6.42424664883977e-06,
      "longitude_deg": 177.558840900017,
      "height_km": 540.410916197615,
      "semi_major_axis_km": 6917.889800251335,
      "eccentricity": 0.0001268,
      "inclination_deg": 53.2161,
      "raan_deg": 115.285,
      "arg_perigee_deg": 74.2811,
      "mean_anomaly_deg": 285.8321,
      "mean_motion_rev_day": 15.08836921
    },
    {
      "epoch": "2026-04-25T16:40:17.760000Z",
      "apogee_km": 540.6709065695713,
      "perigee_km": 538.8279816208642,
      "latitude_deg": 2.049411784329285e-05,
      "longitude_deg": 4.959123868795319,
      "height_km": 540.4124472401162,
      "semi_major_axis_km": 6917.8864440952175,
      "eccentricity": 0.0001332,
      "inclination_deg": 53.2163,
      "raan_deg": 108.7426,
      "arg_perigee_deg": 75.3735,
      "mean_anomaly_deg": 284.7405,
      "mean_motion_rev_day": 15.08838019
    },
    {
      "epoch": "2026-04-26T16:31:04.758528Z",
      "apogee_km": 540.701683752699,
      "perigee_km": 538.7832174234627,
      "latitude_deg": 4.4915509762748865e-05,
      "longitude_deg": 1.8237788160481876,
      "height_km": 540.4111211186919,
      "semi_major_axis_km": 6917.8794505880805,
      "eccentricity": 0.00013866,
      "inclination_deg": 53.2165,
      "raan_deg": 104.2824,
      "arg_perigee_deg": 76.314,
      "mean_anomaly_deg": 283.8007,
      "mean_motion_rev_day": 15.08840307
    },
    {
      "epoch": "2026-04-27T16:21:51.865056Z",
      "apogee_km": 540.7183191758659,
      "perigee_km": 538.7702438069964,
      "latitude_deg": -5.3325469650210596e-05,
      "longitude_deg": -1.3126083042463412,
      "height_km": 540.431037235781,
      "semi_major_axis_km": 6917.881281491431,
      "eccentricity": 0.0001408,
      "inclination_deg": 53.2169,
      "raan_deg": 99.8217,
      "arg_perigee_deg": 77.6164,
      "mean_anomaly_deg": 282.4985,
      "mean_motion_rev_day": 15.08839708
    },
    {
      "epoch": "2026-04-28T08:15:43.441920Z",
      "apogee_km": 540.7649622315521,
      "perigee_km": 538.8002730601402,
      "latitude_deg": 1.769632542416906e-05,
      "longitude_deg": 116.59554770157779,
      "height_km": 540.651611317186,
      "semi_major_axis_km": 6917.919617645845,
      "eccentricity": 0.000142,
      "inclination_deg": 53.2175,
      "raan_deg": 96.8476,
      "arg_perigee_deg": 88.4464,
      "mean_anomaly_deg": 271.6691,
      "mean_motion_rev_day": 15.08827166
    },
    {
      "epoch": "2026-04-29T08:06:30.525984Z",
      "apogee_km": 540.764091560859,
      "perigee_km": 538.7397789006309,
      "latitude_deg": -1.5415371436427155e-05,
      "longitude_deg": 113.45990268175545,
      "height_km": 540.4715763640008,
      "semi_major_axis_km": 6917.888935230744,
      "eccentricity": 0.00014631,
      "inclination_deg": 53.2175,
      "raan_deg": 92.3875,
      "arg_perigee_deg": 79.988,
      "mean_anomaly_deg": 280.1277,
      "mean_motion_rev_day": 15.08837204
    },
    {
      "epoch": "2026-04-30T14:18:50.301792Z",
      "apogee_km": 540.7453837181174,
      "perigee_km": 538.759672707939,
      "latitude_deg": 1.4169384840397074e-05,
      "longitude_deg": 13.487029838145174,
      "height_km": 540.4383560870211,
      "semi_major_axis_km": 6917.889528213028,
      "eccentricity": 0.00014352,
      "inclination_deg": 53.2175,
      "raan_deg": 86.7375,
      "arg_perigee_deg": 77.7991,
      "mean_anomaly_deg": 282.3162,
      "mean_motion_rev_day": 15.0883701
    },
    {
      "epoch": "2026-05-02T07:38:52.050336Z",
      "apogee_km": 540.7418196750768,
      "perigee_km": 538.7591531214748,
      "latitude_deg": -3.6698856581086062e-06,
      "longitude_deg": 104.05070910161136,
      "height_km": 540.4826440485492,
      "semi_major_axis_km": 6917.8874863982755,
      "eccentricity": 0.0001433,
      "inclination_deg": 53.217,
      "raan_deg": 79.006,
      "arg_perigee_deg": 80.5107,
      "mean_anomaly_deg": 279.6047,
      "mean_motion_rev_day": 15.08837678
    },
    {
      "epoch": "2026-05-03T13:51:12.159648Z",
      "apogee_km": 540.7919292078241,
      "perigee_km": 538.7220953193546,
      "latitude_deg": -2.9451000045122576e-06,
      "longitude_deg": 4.076518250284258,
      "height_km": 540.5734471078648,
      "semi_major_axis_km": 6917.894012263589,
      "eccentricity": 0.0001496,
      "inclination_deg": 53.2174,
      "raan_deg": 73.3561,
      "arg_perigee_deg": 85.6172,
      "mean_anomaly_deg": 274.4991,
      "mean_motion_rev_day": 15.08835543
    },
    {
      "epoch": "2026-05-04T13:41:58.842816Z",
      "apogee_km": 540.7029177393142,
      "perigee_km": 538.7410129367454,
      "latitude_deg": -1.5910488334308024e-05,
      "longitude_deg": 0.9426593217638652,
      "height_km": 540.4890340438637,
      "semi_major_axis_km": 6917.8589653380295,
      "eccentricity": 0.0001418,
      "inclination_deg": 53.2181,
      "raan_deg": 68.8961,
      "arg_perigee_deg": 82.4637,
      "mean_anomaly_deg": 277.6516,
      "mean_motion_rev_day": 15.08847009
    },
    {
      "epoch": "2026-05-05T19:54:18.427680Z",
      "apogee_km": 540.8278603608615,
      "perigee_km": 538.6418128604919,
      "latitude_deg": -5.257736056683685e-06,
      "longitude_deg": -99.02993444142795,
      "height_km": 540.5907981897221,
      "semi_major_axis_km": 6917.871836610676,
      "eccentricity": 0.000158,
      "inclination_deg": 53.2179,
      "raan_deg": 63.2456,
      "arg_perigee_deg": 87.9293,
      "mean_anomaly_deg": 272.188,
      "mean_motion_rev_day": 15.08842798
    }
  ]
}